{
  "norad_id": 61739,
  "name": "SITRO-AIS 21",
  "history": [
    {
      "epoch": "2026-03-28T21:18:36.842688Z",
      "apogee_km": 591.349572068244,
      "perigee_km": 574.5193719061326,
      "latitude_deg": -6.0762040279764216e-05,
      "longitude_deg": 144.98868043828438,
      "height_km": 578.0675958446129,
      "semi_major_axis_km": 6961.071471987188,
      "eccentricity": 0.00120888,
      "inclination_deg": 97.3317,
      "raan_deg": 290.9441,
      "arg_perigee_deg": 340.4139,
      "mean_anomaly_deg": 19.6616,
      "mean_motion_rev_day": 14.94819046
    },
    {
      "epoch": "2026-03-29T03:44:11.109696Z",
      "apogee_km": 591.3257529686653,
      "perigee_km": 574.5273144491202,
      "latitude_deg": 3.4935841624262344e-05,
      "longitude_deg": 48.58227497626486,
      "height_km": 578.1210304215618,
      "semi_major_axis_km": 6961.0635337088925,
      "eccentricity": 0.0012066,
      "inclination_deg": 97.3317,
      "raan_deg": 291.1944,
      "arg_perigee_deg": 339.4936,
      "mean_anomaly_deg": 20.58,
      "mean_motion_rev_day": 14.94821603
    },
    {
      "epoch": "2026-03-30T03:50:04.701696Z",
      "apogee_km": 591.2015459152544,
      "perigee_km": 574.6328447195592,
      "latitude_deg": 1.8658981409396485e-05,
      "longitude_deg": 47.05799894420084,
      "height_km": 578.4210496252932,
      "semi_major_axis_km": 6961.054195317406,
      "eccentricity": 0.0011901,
      "inclination_deg": 97.3313,
      "raan_deg": 292.1331,
      "arg_perigee_deg": 335.8327,
      "mean_anomaly_deg": 24.2335,
      "mean_motion_rev_day": 14.94824611
    },
    {
      "epoch": "2026-03-30T05:26:28.260672Z",
      "apogee_km": 591.1944075609736,
      "perigee_km": 574.6382383376713,
      "latitude_deg": 4.16458896509617e-05,
      "longitude_deg": 22.956355256043825,
      "height_km": 578.4386909546515,
      "semi_major_axis_km": 6961.053322949322,
      "eccentricity": 0.0011892,
      "inclination_deg": 97.3313,
      "raan_deg": 292.1956,
      "arg_perigee_deg": 335.6178,
      "mean_anomaly_deg": 24.448,
      "mean_motion_rev_day": 14.94824892
    },
    {
      "epoch": "2026-03-30T13:28:26.018400Z",
      "apogee_km": 591.1613315540862,
      "perigee_km": 574.6598897511303,
      "latitude_deg": -1.5099695244888644e-06,
      "longitude_deg": -97.55128773232695,
      "height_km": 578.5243241898543,
      "semi_major_axis_km": 6961.0476106526085,
      "eccentricity": 0.00118527,
      "inclination_deg": 97.3312,
      "raan_deg": 292.5085,
      "arg_perigee_deg": 334.5263,
      "mean_anomaly_deg": 25.5373,
      "mean_motion_rev_day": 14.94826732
    },
    {
      "epoch": "2026-03-30T21:30:23.743296Z",
      "apogee_km": 591.1242970720386,
      "perigee_km": 574.6848228823337,
      "latitude_deg": 5.868932704860572e-05,
      "longitude_deg": 141.94109322906624,
      "height_km": 578.6171275161689,
      "semi_major_axis_km": 6961.041559977186,
      "eccentricity": 0.00118082,
      "inclination_deg": 97.3312,
      "raan_deg": 292.8213,
      "arg_perigee_deg": 333.4032,
      "mean_anomaly_deg": 26.6583,
      "mean_motion_rev_day": 14.94828681
    },
    {
      "epoch": "2026-03-31T19:59:53.238912Z",
      "apogee_km": 591.040824942449,
      "perigee_km": 574.739491543276,
      "latitude_deg": 1.9938700148489705e-06,
      "longitude_deg": 164.52040919958037,
      "height_km": 578.8750791201298,
      "semi_major_axis_km": 6961.027158242862,
      "eccentricity": 0.0011709,
      "inclination_deg": 97.331,
      "raan_deg": 293.6972,
      "arg_perigee_deg": 330.2728,
      "mean_anomaly_deg": 29.7827,
      "mean_motion_rev_day": 14.9483332
    },
    {
      "epoch": "2026-04-01T20:05:45.973824Z",
      "apogee_km": 590.9546677963108,
      "perigee_km": 574.7995462567233,
      "latitude_deg": 9.035112522836033e-05,
      "longitude_deg": 162.99960140981756,
      "height_km": 579.1703844194714,
      "semi_major_axis_km": 6961.014107026516,
      "eccentricity": 0.0011604,
      "inclination_deg": 97.3309,
      "raan_deg": 294.6358,
      "arg_perigee_deg": 326.9433,
      "mean_anomaly_deg": 33.1063,
      "mean_motion_rev_day": 14.94837524
    },
    {
      "epoch": "2026-04-02T20:11:38.306112Z",
      "apogee_km": 590.8402454254119,
      "perigee_km": 574.8578214925901,
      "latitude_deg": 3.919824070025668e-05,
      "longitude_deg": 161.48049318489387,
      "height_km": 579.481831427296,
      "semi_major_axis_km": 6960.986033459001,
      "eccentricity": 0.001148,
      "inclination_deg": 97.3308,
      "raan_deg": 295.5744,
      "arg_perigee_deg": 323.5858,
      "mean_anomaly_deg": 36.4582,
      "mean_motion_rev_day": 14.94846567
    },
    {
      "epoch": "2026-04-02T21:48:01.780416Z",
      "apogee_km": 590.8324657092799,
      "perigee_km": 574.862714082833,
      "latitude_deg": 2.470071568689007e-05,
      "longitude_deg": 137.37920802826926,
      "height_km": 579.5056805164958,
      "semi_major_axis_km": 6960.984589896057,
      "eccentricity": 0.00114709,
      "inclination_deg": 97.3308,
      "raan_deg": 295.6369,
      "arg_perigee_deg": 323.3427,
      "mean_anomaly_deg": 36.7009,
      "mean_motion_rev_day": 14.94847032
    },
    {
      "epoch": "2026-04-03T20:17:30.234912Z",
      "apogee_km": 590.755265769104,
      "perigee_km": 574.8967997878281,
      "latitude_deg": 1.9209374469578483e-05,
      "longitude_deg": 159.96296603456804,
      "height_km": 579.8045811297033,
      "semi_major_axis_km": 6960.963032778465,
      "eccentricity": 0.0011391,
      "inclination_deg": 97.3308,
      "raan_deg": 296.5129,
      "arg_perigee_deg": 320.1276,
      "mean_anomaly_deg": 39.9108,
      "mean_motion_rev_day": 14.94853976
    },
    {
      "epoch": "2026-04-04T20:23:21.712704Z",
      "apogee_km": 590.6937155227561,
      "perigee_km": 574.9285601801503,
      "latitude_deg": 3.3579464586382235e-05,
      "longitude_deg": 158.44711796685235,
      "height_km": 580.1623644415381,
      "semi_major_axis_km": 6960.948137851453,
      "eccentricity": 0.0011324,
      "inclination_deg": 97.3309,
      "raan_deg": 297.4512,
      "arg_perigee_deg": 316.4502,
      "mean_anomaly_deg": 43.5825,
      "mean_motion_rev_day": 14.94858774
    },
    {
      "epoch": "2026-04-05T14:03:39.237984Z",
      "apogee_km": 590.656067837388,
      "perigee_km": 574.9398081530808,
      "latitude_deg": 1.1644205999680707e-05,
      "longitude_deg": -106.66334656492609,
      "height_km": 580.4312711381209,
      "semi_major_axis_km": 6960.934937995235,
      "eccentricity": 0.00112889,
      "inclination_deg": 97.3309,
      "raan_deg": 298.1395,
      "arg_perigee_deg": 313.7217,
      "mean_anomaly_deg": 46.3069,
      "mean_motion_rev_day": 14.94863026
    },
    {
      "epoch": "2026-04-05T20:29:12.835392Z",
      "apogee_km": 590.6454626671039,
      "perigee_km": 574.9443846201339,
      "latitude_deg": -9.802072893852445e-06,
      "longitude_deg": 156.93296008663185,
      "height_km": 580.5351657384421,
      "semi_major_axis_km": 6960.931923643619,
      "eccentricity": 0.0011278,
      "inclination_deg": 97.331,
      "raan_deg": 298.3897,
      "arg_perigee_deg": 312.7043,
      "mean_anomaly_deg": 47.3228,
      "mean_motion_rev_day": 14.94863997
    },
    {
      "epoch": "2026-04-06T04:31:09.806880Z",
      "apogee_km": 590.6303768392208,
      "perigee_km": 574.9496357906364,
      "latitude_deg": -4.265617466293257e-05,
      "longitude_deg": 36.4284996330619,
      "height_km": 580.6646006708258,
      "semi_major_axis_km": 6960.927006314929,
      "eccentricity": 0.00112634,
      "inclination_deg": 97.331,
      "raan_deg": 298.7025,
      "arg_perigee_deg": 311.4502,
      "mean_anomaly_deg": 48.5751,
      "mean_motion_rev_day": 14.94865581
    },
    {
      "epoch": "2026-04-07T14:15:21.046176Z",
      "apogee_km": 590.6509810671268,
      "perigee_km": 574.9147080113698,
      "latitude_deg": 1.7873401256855437e-05,
      "longitude_deg": -109.68994925718384,
      "height_km": 581.233576986334,
      "semi_major_axis_km": 6960.919844539248,
      "eccentricity": 0.00113033,
      "inclination_deg": 97.3308,
      "raan_deg": 300.0164,
      "arg_perigee_deg": 305.9054,
      "mean_anomaly_deg": 54.1118,
      "mean_motion_rev_day": 14.94867888
    },
    {
      "epoch": "2026-04-07T20:40:54.541632Z",
      "apogee_km": 590.6407408871864,
      "perigee_km": 574.9215954797937,
      "latitude_deg": 4.848177115052349e-05,
      "longitude_deg": 153.90687639154095,
      "height_km": 581.3521500268615,
      "semi_major_axis_km": 6960.91816818349,
      "eccentricity": 0.0011291,
      "inclination_deg": 97.3309,
      "raan_deg": 300.2667,
      "arg_perigee_deg": 304.8754,
      "mean_anomaly_deg": 55.1406,
      "mean_motion_rev_day": 14.94868428
    },
    {
      "epoch": "2026-04-08T14:21:11.663424Z",
      "apogee_km": 590.6220148014891,
      "perigee_km": 574.9282207772067,
      "latitude_deg": 2.797992622701559e-05,
      "longitude_deg": -111.20190358044286,
      "height_km": 581.6708788578919,
      "semi_major_axis_km": 6960.912117789348,
      "eccentricity": 0.00112728,
      "inclination_deg": 97.3308,
      "raan_deg": 300.955,
      "arg_perigee_deg": 302.0963,
      "mean_anomaly_deg": 57.9164,
      "mean_motion_rev_day": 14.94870377
    },
    {
      "epoch": "2026-04-09T19:16:12.216288Z",
      "apogee_km": 590.5737620208083,
      "perigee_km": 574.9493291453919,
      "latitude_deg": 8.567765620007133e-06,
      "longitude_deg": 174.9845201178803,
      "height_km": 582.2252203671602,
      "semi_major_axis_km": 6960.8985455831,
      "eccentricity": 0.0011223,
      "inclination_deg": 97.3308,
      "raan_deg": 302.0813,
      "arg_perigee_deg": 297.4536,
      "mean_anomaly_deg": 62.5544,
      "mean_motion_rev_day": 14.94874749
    },
    {
      "epoch": "2026-04-10T06:30:55.719936Z",
      "apogee_km": 590.5526600880357,
      "perigee_km": 574.9597024904933,
      "latitude_deg": 7.387733280574367e-05,
      "longitude_deg": 6.27931244732445,
      "height_km": 582.4457991611198,
      "semi_major_axis_km": 6960.893181289264,
      "eccentricity": 0.00112004,
      "inclination_deg": 97.3307,
      "raan_deg": 302.5192,
      "arg_perigee_deg": 295.6574,
      "mean_anomaly_deg": 64.3491,
      "mean_motion_rev_day": 14.94876477
    },
    {
      "epoch": "2026-04-11T19:27:52.922016Z",
      "apogee_km": 590.5074244260759,
      "perigee_km": 574.9943896364657,
      "latitude_deg": -1.4113476967868649e-05,
      "longitude_deg": 171.9624280450118,
      "height_km": 583.2187460934767,
      "semi_major_axis_km": 6960.8879070312705,
      "eccentricity": 0.0011143,
      "inclination_deg": 97.3305,
      "raan_deg": 303.9581,
      "arg_perigee_deg": 289.5673,
      "mean_anomaly_deg": 70.4345,
      "mean_motion_rev_day": 14.94878176
    },
    {
      "epoch": "2026-04-13T06:48:26.664480Z",
      "apogee_km": 590.4676020244824,
      "perigee_km": 575.0198762705504,
      "latitude_deg": 6.16278889657006e-05,
      "longitude_deg": 1.746750748448196,
      "height_km": 583.9719254598642,
      "semi_major_axis_km": 6960.880739147516,
      "eccentricity": 0.00110961,
      "inclination_deg": 97.3302,
      "raan_deg": 305.3345,
      "arg_perigee_deg": 283.7633,
      "mean_anomaly_deg": 76.2354,
      "mean_motion_rev_day": 14.94880485
    }
  ]
}